0 FENGYUN 1C DEB
1 32352U 99025CYV 13284.47339459  .00000337  00000-0  12309-3 0   871
2 32352 098.7724 013.3082 0135180 335.7628 023.7303 14.34864924327716
0 FENGYUN 1C DEB
1 32352U 99025CYV 13287.47185772  .00000343  00000-0  12499-3 0   889
2 32352 098.7722 016.3517 0134926 326.8511 032.4436 14.34867666328147
0 FENGYUN 1C DEB
1 32352U 99025CYV 13289.49407345  .00000347  00000-0  12616-3 0   892
2 32352 098.7727 018.4063 0134715 320.9049 038.2513 14.34869458328431
0 FENGYUN 1C DEB
1 32352U 99025CYV 13291.02816419  .00000359  00000-0  13015-3 0   909
2 32352 098.7736 019.9653 0134543 316.2809 042.7829 14.34871375328658
0 FENGYUN 1C DEB
1 32352U 99025CYV 13293.05038157  .00000366  00000-0  13249-3 0   917
2 32352 098.7734 022.0203 0134829 310.4008 048.5505 14.34873300328943
0 FENGYUN 1C DEB
1 32352U 99025CYV 13295.49098737  .00000397  00000-0  14214-3 0   925
2 32352 098.7719 024.5002 0134692 303.5731 055.2927 14.34876679329298
